Unit,Street,Town/City ,State,ZipCode,Country,
63,Folwell Station Rd,Jobstown,NJ,08041,US,
1,Errickson Ct,Jobstown,NJ,08041,US,
2069,Jacksonville Jobstown Rd,Jobstown,NJ,08041,US,
,Anderson Ln,Jobstown,NJ,08041,US,
6,Errickson Ct,Jobstown,NJ,08041,US,
5,Errickson Ct,Jobstown,NJ,08041,US,
2070,Jacksonville Jobstown Rd,Jobstown,NJ,08041,US,
126,Folwell Station Rd,Jobstown,NJ,08041,US,
2,Errickson Ct,Jobstown,NJ,08041,US,
83,Folwell Station Rd,Jobstown,NJ,08041,US,
19,Pine Glen Dr,Jobstown,NJ,08041,US,
2,Pine Glen Dr,Jobstown,NJ,08041,US,
17,Pine Glen Dr,Jobstown,NJ,08041,US,
57,Folwell Station Rd,Jobstown,NJ,08041,US,
61,Folwell Station Rd,Jobstown,NJ,08041,US,
134,Folwell Station Rd,Jobstown,NJ,08041,US,
53,Folwell Station Rd,Jobstown,NJ,08041,US,
2083,Jacksonville Jobstown Rd,Jobstown,NJ,08041,US,
61,Folwell Station Rd,Jobstown,NJ,08041,US,
99,Errickson Ct,Jobstown,NJ,08041,US,
66,Folwell Station Rd,Jobstown,NJ,08041,US,
2084,Jacksonville Jobstown Rd,Jobstown,NJ,08041,US,
12,Pine Glen Dr,Jobstown,NJ,08041,US,
98,Pine Glen Dr,Jobstown,NJ,08041,US,
5,Pine Tree Lane,Jobstown,NJ,08041,US,
2001,Jacksonville Jobstown Rd,Jobstown,NJ,08041,US,
2,Errickson Ct,Jobstown,NJ,08041,US,
2088,Jacksonville Jobstown Rd,Jobstown,NJ,08041,US,
1404,Reed Rd,Cream Ridge,NJ,08514,US,
1422,Reed Rd,Cream Ridge,NJ,08514,US,
7,Veronica Ct,New Egypt,NJ,08533,US,
114,Leanne Dr,New Egypt,NJ,08533,US,
,Presevation Lake Wildlife,Cream Ridge,NJ,08514,US,
649,Monmouth Rd,Cream Ridge,NJ,08514,US,
128,Leanne Dr,New Egypt,NJ,08533,US,
101,Kenneth Ln,New Egypt,NJ,08533,US,
2,Alyssa Rose Ln,New Egypt,NJ,08533,US,
11,Alyssa Rose Ln,New Egypt,NJ,08533,US,
126,Leanne Dr,New Egypt,NJ,08533,US,
110,Kenneth Ln,New Egypt,NJ,08533,US,
269,Hawkin Rd,New Egypt,NJ,08533,US,
140,Leanne Dr,New Egypt,NJ,08533,US,
133,Leanne Dr,New Egypt,NJ,08533,US,
5,Veronica Ct,New Egypt,NJ,08533,US,
531,N Stump Tavern Rd,Cream Ridge,NJ,08514,US,
418,N Stump Tavern Rd,Cream Ridge,NJ,08514,US,
265,Hawkin Rd,New Egypt,NJ,08533,US,
131,Leanne Dr,New Egypt,NJ,08533,US,
213,Hawkin Rd,New Egypt,NJ,08533,US,
138,Leanne Dr,New Egypt,NJ,08533,US,
129,Leanne Dr,New Egypt,NJ,08533,US,
136,Leanne Dr,New Egypt,NJ,08533,US,
181,Hawkin Rd,New Egypt,NJ,08533,US,
177,Hawkin Rd,New Egypt,NJ,08533,US,
175,Hawkin Rd,New Egypt,NJ,08533,US,
142,Leanne Dr,New Egypt,NJ,08533,US,
171,Hawkin Rd,New Egypt,NJ,08533,US,
15,Alyssa Rose Ln,New Egypt,NJ,08533,US,
12,Alyssa Rose Ln,New Egypt,NJ,08533,US,
127,Leanne Dr,New Egypt,NJ,08533,US,
606,Prospertown Rd,Cream Ridge,NJ,08514,US,
257,Hawkin Rd,New Egypt,NJ,08533,US,
108,Leanne Dr,New Egypt,NJ,08533,US,
130,Leanne Dr,New Egypt,NJ,08533,US,
132,Leanne Dr,New Egypt,NJ,08533,US,
10,Alyssa Rose Ln,New Egypt,NJ,08533,US,
134,Leanne Dr,New Egypt,NJ,08533,US,
261,Hawkin Rd,New Egypt,NJ,08533,US,
629,Monmouth Rd,Cream Ridge,NJ,08514,US,
631,Monmouth Rd,Cream Ridge,NJ,08514,US,
105,Hawkin Rd,New Egypt,NJ,08533,US,
1390,Reed Rd,Cream Ridge,NJ,08514,US,
157,Hawkin Rd,New Egypt,NJ,08533,US,
607,Prospertown Rd,Cream Ridge,NJ,08514,US,
1101,Reed Rd,Cream Ridge,NJ,08514,US,
1083,Reed Rd,Cream Ridge,NJ,08514,US,
657,Monmouth Rd,Cream Ridge,NJ,08514,US,
14,Alyssa Rose Ln,New Egypt,NJ,08533,US,
,,Cream Ridge,NJ,08514,US,
,County Rd 537,,NJ,,US,
1338,Reed Rd,Cream Ridge,NJ,08514,US,
1021,Reed Rd,Cream Ridge,NJ,08514,US,
104,Leanne Dr,New Egypt,NJ,08533,US,
110,Leanne Dr,New Egypt,NJ,08533,US,
112,Leanne Dr,New Egypt,NJ,08533,US,
279,Hawkin Rd,New Egypt,NJ,08533,US,
100,Leanne Dr,New Egypt,NJ,08533,US,
116,Leanne Dr,New Egypt,NJ,08533,US,
107,Leanne Dr,New Egypt,NJ,08533,US,
1205,Reed Rd,Cream Ridge,NJ,08514,US,
69,Hawkin Rd,New Egypt,NJ,08533,US,
67,Hawkin Rd,New Egypt,NJ,08533,US,
123,Leanne Dr,New Egypt,NJ,08533,US,
7,Alyssa Rose Ln,New Egypt,NJ,08533,US,
100,Kenneth Ln,New Egypt,NJ,08533,US,
102,Kenneth Ln,New Egypt,NJ,08533,US,
9,Alyssa Rose Ln,New Egypt,NJ,08533,US,
108,Kenneth Ln,New Egypt,NJ,08533,US,
103,Leanne Dr,New Egypt,NJ,08533,US,
109,Leanne Dr,New Egypt,NJ,08533,US,
105,Leanne Dr,New Egypt,NJ,08533,US,
6,Veronica Ct,New Egypt,NJ,08533,US,
4,Veronica Ct,New Egypt,NJ,08533,US,
121,Leanne Dr,New Egypt,NJ,08533,US,
1,Alyssa Rose Ln,New Egypt,NJ,08533,US,
3,Alyssa Rose Ln,New Egypt,NJ,08533,US,
5,Alyssa Rose Ln,New Egypt,NJ,08533,US,
104,Kenneth Ln,New Egypt,NJ,08533,US,
532,N Stump Tavern Rd,Cream Ridge,NJ,08514,US,
2,Veronica Ct,New Egypt,NJ,08533,US,
1,Veronica Ct,New Egypt,NJ,08533,US,
3,Veronica Ct,New Egypt,NJ,08533,US,
111,Leanne Dr,New Egypt,NJ,08533,US,
13,Alyssa Rose Ln,New Egypt,NJ,08533,US,
118,Leanne Dr,New Egypt,NJ,08533,US,
113,Leanne Dr,New Egypt,NJ,08533,US,
12,Province Line Rd,New Egypt,NJ,08533,US,
239,Hawkin Rd,New Egypt,NJ,08533,US,
120,Leanne Dr,New Egypt,NJ,08533,US,
117,Leanne Dr,New Egypt,NJ,08533,US,
101,Leanne Dr,New Egypt,NJ,08533,US,
701,Monmouth Rd,Cream Ridge,NJ,08514,US,
9,Veronica Ct,New Egypt,NJ,08533,US,
11,Veronica Ct,New Egypt,NJ,08533,US,
1295,Reed Rd,Cream Ridge,NJ,08514,US,
1335,Reed Rd,Cream Ridge,NJ,08514,US,
1340,Reed Rd,Cream Ridge,NJ,08514,US,
219,Hawkin Rd,New Egypt,NJ,08533,US,
6,Bane Lane,New Egypt,NJ,08533,US,
102,Leanne Dr,New Egypt,NJ,08533,US,
122,Leanne Dr,New Egypt,NJ,08533,US,
119,Leanne Dr,New Egypt,NJ,08533,US,
124,Leanne Dr,New Egypt,NJ,08533,US,
1403,Reed Rd,Cream Ridge,NJ,08514,US,
63,Hawkin Rd,New Egypt,NJ,08533,US,
17,Veronica Ct,New Egypt,NJ,08533,US,
19,Veronica Ct,New Egypt,NJ,08533,US,
14,Veronica Ct,New Egypt,NJ,08533,US,
106,Kenneth Ln,New Egypt,NJ,08533,US,
201,Hawkin Rd,New Egypt,NJ,08533,US,
106,Leanne Dr,New Egypt,NJ,08533,US,
10,Veronica Ct,New Egypt,NJ,08533,US,
12,Veronica Ct,New Egypt,NJ,08533,US,
,,Cream Ridge,NJ,08514,US,
163,Hawkin Rd,New Egypt,NJ,08533,US,
2,Bane Lane,New Egypt,NJ,08533,US,
4,Bane Lane,New Egypt,NJ,08533,US,
597,Monmouth Rd,Cream Ridge,NJ,08514,US,
173,Hawkin Rd,New Egypt,NJ,08533,US,
169,Hawkin Rd,New Egypt,NJ,08533,US,
8,Alyssa Rose Ln,New Egypt,NJ,08533,US,
1236,Reed Rd,Cream Ridge,NJ,08514,US,
1236,Cassville-Prospertown Rd,Cream Ridge,NJ,08514,US,
625,Monmouth Rd,Cream Ridge,NJ,08514,US,
4,Alyssa Rose Ln,New Egypt,NJ,08533,US,
109,Kenneth Ln,New Egypt,NJ,08533,US,
6,Alyssa Rose Ln,New Egypt,NJ,08533,US,
111,Kenneth Ln,New Egypt,NJ,08533,US,
125,Leanne Dr,New Egypt,NJ,08533,US,
611,Monmouth Rd,Cream Ridge,NJ,08514,US,
607,Monmouth Rd,Cream Ridge,NJ,08514,US,
603,Monmouth Rd,Cream Ridge,NJ,08514,US,
122,Long Swamp Rd,New Egypt,NJ,08533,US,
108,Long Swamp Rd,New Egypt,NJ,08533,US,
108,Long Swamp Rd,New Egypt,NJ,08533,US,
8,Inman Rd,New Egypt,NJ,08533,US,
210,Brindletown Rd,New Egypt,NJ,08533,US,
1,Cranberry Canners Rd,New Egypt,NJ,08533,US,
111,Long Swamp Rd,New Egypt,NJ,08533,US,
111,Long Swamp Rd,New Egypt,NJ,08533,US,
140,Long Swamp Rd,New Egypt,NJ,08533,US,
144,Long Swamp Rd,New Egypt,NJ,08533,US,
146,Long Swamp Rd,New Egypt,NJ,08533,US,
10,Carter Ln,New Egypt,NJ,08533,US,
153,Long Swamp Rd,New Egypt,NJ,08533,US,
184,Long Swamp Rd,New Egypt,NJ,08533,US,
149,Long Swamp Rd,New Egypt,NJ,08533,US,
161,Long Swamp Rd,New Egypt,NJ,08533,US,
190,Long Swamp Rd,New Egypt,NJ,08533,US,
13,Carter Ln,New Egypt,NJ,08533,US,
171,Long Swamp Rd,New Egypt,NJ,08533,US,
78,Cranberry Canners Rd,New Egypt,NJ,08533,US,
87,Cranberry Canners Rd,New Egypt,NJ,08533,US,
